KUIPER-00279            
1 67795U 26030AH  26193.41722426 -.00000053  00000+0  22046-4 0  9990
2 67795  51.9036 346.5939 0001040 155.3794 204.7218 14.79929920 24134
KUIPER-00131            
1 68573U 26072A   26193.07571876 -.00000717  00000+0 -65081-4 0  9998
2 68573  51.9004  85.5930 0000754  96.4690 263.6358 14.79931195 14805
KUIPER-00189            
1 68574U 26072B   26192.97173367  .00002030  00000+0  29516-3 0  9990
2 68574  51.8993  88.5383 0000713 100.3375 259.7668 14.79935443 14751
KUIPER-00192            
1 68575U 26072C   26193.14594392  .00001391  00000+0  21156-3 0  9997
2 68575  51.9014  82.7792 0000945  96.7831 263.3239 14.79920434 14859
KUIPER-00193            
1 68576U 26072D   26192.88028897  .00000598  00000+0  11538-3 0  9991
2 68576  51.9046  73.9044 0000632   7.4038 352.6932 14.76603520 14952
KUIPER-00194            
1 68577U 26072E   26192.91224164  .00000340  00000+0  73651-4 0  9991
2 68577  51.9025  81.3255 0000798 147.4868 212.6143 14.79911278 14859
KUIPER-00229            
1 68578U 26072F   26193.10948005  .00002035  00000+0  29591-3 0  9997
2 68578  51.9016  85.4400 0000839 109.6036 250.5017 14.79929869 14812
KUIPER-00230            
1 68579U 26072G   26192.87681542  .00015740  00000+0  41592-3 0  9993
2 68579  51.8766  57.1800 0002830 111.1269 249.0021 15.38595844 15180
KUIPER-00231            
1 68580U 26072H   26193.50002315  .00015003  00000+0  12012-2 0  9997
2 68580  51.8957  56.8088 0001825  15.0856 248.2921 15.00334728  5196
KUIPER-00234            
1 68581U 26072J   26192.93836726  .00000681  00000+0  12708-3 0  9994
2 68581  51.9002  81.1093 0000457 270.5002  89.5906 14.76588342 14854
KUIPER-00236            
1 68582U 26072K   26193.02730392  .00026178  00000+0  69486-3 0  9992
2 68582  51.8769  56.6916 0002824 104.0306 256.0995 15.38109803 15202
KUIPER-00244            
1 68583U 26072L   26193.05810504 -.00003272  00000+0 -40043-3 0  9990
2 68583  51.9012  70.6812 0001638 114.1777 245.9356 14.79930394 15010
KUIPER-00253            
1 68584U 26072M   26193.05543485  .00001957  00000+0  28558-3 0  9995
2 68584  51.9044  73.1974 0000691 101.6565 258.4475 14.79943546 14975
KUIPER-00254            
1 68585U 26072N   26193.08650037  .00002014  00000+0  29301-3 0  9993
2 68585  51.9034  75.5585 0001915 106.1518 253.9655 14.79944726 14945
KUIPER-00263            
1 68586U 26072P   26193.50002315 -.00008221  00000+0 -88902-3 0  9991
2 68586  51.8990  58.9589 0002532  89.6795 156.8369 14.86766350  5163
KUIPER-00269            
1 68587U 26072Q   26193.50002315 -.00007090  00000+0 -89781-3 0  9991
2 68587  51.9003  61.2253 0000695 305.2363  27.0384 14.80124300  5704
