{"fetched_at":"2026-07-12T17:32:22.539Z","source":"https://celestrak.org/NORAD/elements/gp.php?GROUP=kuiper&FORMAT=JSON","constellation":"kuiper","records":[{"OBJECT_NAME":"KUIPER-00279","OBJECT_ID":"2026-030AH","EPOCH":"2026-07-12T10:00:48.176064","CLASSIFICATION_TYPE":"U","MEAN_MOTION":14.7992992,"ECCENTRICITY":0.000104,"INCLINATION":51.9036,"RA_OF_ASC_NODE":346.5939,"ARG_OF_PERICENTER":155.3794,"MEAN_ANOMALY":204.7218,"EPHEMERIS_TYPE":0,"NORAD_CAT_ID":67795,"ELEMENT_SET_NO":999,"REV_AT_EPOCH":2413,"BSTAR":0.000022046,"MEAN_MOTION_DOT":-5.3e-7,"MEAN_MOTION_DDOT":0},{"OBJECT_NAME":"KUIPER-00131","OBJECT_ID":"2026-072A","EPOCH":"2026-07-12T01:49:02.100864","CLASSIFICATION_TYPE":"U","MEAN_MOTION":14.79931195,"ECCENTRICITY":0.00007546,"INCLINATION":51.9004,"RA_OF_ASC_NODE":85.593,"ARG_OF_PERICENTER":96.469,"MEAN_ANOMALY":263.6358,"EPHEMERIS_TYPE":0,"NORAD_CAT_ID":68573,"ELEMENT_SET_NO":999,"REV_AT_EPOCH":1480,"BSTAR":-0.000065080866,"MEAN_MOTION_DOT":-0.00000717,"MEAN_MOTION_DDOT":0},{"OBJECT_NAME":"KUIPER-00189","OBJECT_ID":"2026-072B","EPOCH":"2026-07-11T23:19:17.789088","CLASSIFICATION_TYPE":"U","MEAN_MOTION":14.79935443,"ECCENTRICITY":0.00007136,"INCLINATION":51.8993,"RA_OF_ASC_NODE":88.5383,"ARG_OF_PERICENTER":100.3375,"MEAN_ANOMALY":259.7668,"EPHEMERIS_TYPE":0,"NORAD_CAT_ID":68574,"ELEMENT_SET_NO":999,"REV_AT_EPOCH":1475,"BSTAR":0.00029515518,"MEAN_MOTION_DOT":0.0000203,"MEAN_MOTION_DDOT":0},{"OBJECT_NAME":"KUIPER-00192","OBJECT_ID":"2026-072C","EPOCH":"2026-07-12T03:30:09.554688","CLASSIFICATION_TYPE":"U","MEAN_MOTION":14.79920434,"ECCENTRICITY":0.00009457,"INCLINATION":51.9014,"RA_OF_ASC_NODE":82.7792,"ARG_OF_PERICENTER":96.7831,"MEAN_ANOMALY":263.3239,"EPHEMERIS_TYPE":0,"NORAD_CAT_ID":68575,"ELEMENT_SET_NO":999,"REV_AT_EPOCH":1485,"BSTAR":0.00021155907,"MEAN_MOTION_DOT":0.00001391,"MEAN_MOTION_DDOT":0},{"OBJECT_NAME":"KUIPER-00193","OBJECT_ID":"2026-072D","EPOCH":"2026-07-11T21:07:36.967008","CLASSIFICATION_TYPE":"U","MEAN_MOTION":14.7660352,"ECCENTRICITY":0.0000632,"INCLINATION":51.9046,"RA_OF_ASC_NODE":73.9044,"ARG_OF_PERICENTER":7.4038,"MEAN_ANOMALY":352.6932,"EPHEMERIS_TYPE":0,"NORAD_CAT_ID":68576,"ELEMENT_SET_NO":999,"REV_AT_EPOCH":1495,"BSTAR":0.00011538,"MEAN_MOTION_DOT":0.00000598,"MEAN_MOTION_DDOT":0},{"OBJECT_NAME":"KUIPER-00194","OBJECT_ID":"2026-072E","EPOCH":"2026-07-11T21:53:37.677696","CLASSIFICATION_TYPE":"U","MEAN_MOTION":14.79911278,"ECCENTRICITY":0.0000798,"INCLINATION":51.9025,"RA_OF_ASC_NODE":81.3255,"ARG_OF_PERICENTER":147.4868,"MEAN_ANOMALY":212.6143,"EPHEMERIS_TYPE":0,"NORAD_CAT_ID":68577,"ELEMENT_SET_NO":999,"REV_AT_EPOCH":1485,"BSTAR":0.000073651,"MEAN_MOTION_DOT":0.0000034,"MEAN_MOTION_DDOT":0},{"OBJECT_NAME":"KUIPER-00229","OBJECT_ID":"2026-072F","EPOCH":"2026-07-12T02:37:39.076320","CLASSIFICATION_TYPE":"U","MEAN_MOTION":14.79929869,"ECCENTRICITY":0.0000839,"INCLINATION":51.9016,"RA_OF_ASC_NODE":85.44,"ARG_OF_PERICENTER":109.6036,"MEAN_ANOMALY":250.5017,"EPHEMERIS_TYPE":0,"NORAD_CAT_ID":68578,"ELEMENT_SET_NO":999,"REV_AT_EPOCH":1481,"BSTAR":0.00029590504,"MEAN_MOTION_DOT":0.00002035,"MEAN_MOTION_DDOT":0},{"OBJECT_NAME":"KUIPER-00230","OBJECT_ID":"2026-072G","EPOCH":"2026-07-11T21:02:36.852288","CLASSIFICATION_TYPE":"U","MEAN_MOTION":15.38595844,"ECCENTRICITY":0.00028301,"INCLINATION":51.8766,"RA_OF_ASC_NODE":57.18,"ARG_OF_PERICENTER":111.1269,"MEAN_ANOMALY":249.0021,"EPHEMERIS_TYPE":0,"NORAD_CAT_ID":68579,"ELEMENT_SET_NO":999,"REV_AT_EPOCH":1518,"BSTAR":0.00041591749,"MEAN_MOTION_DOT":0.0001574,"MEAN_MOTION_DDOT":0},{"OBJECT_NAME":"KUIPER-00231","OBJECT_ID":"2026-072H","EPOCH":"2026-07-12T12:00:02.000160","CLASSIFICATION_TYPE":"U","MEAN_MOTION":15.00334728,"ECCENTRICITY":0.0001825,"INCLINATION":51.8957,"RA_OF_ASC_NODE":56.8088,"ARG_OF_PERICENTER":15.0856,"MEAN_ANOMALY":248.2921,"EPHEMERIS_TYPE":0,"NORAD_CAT_ID":68580,"ELEMENT_SET_NO":999,"REV_AT_EPOCH":519,"BSTAR":0.0012012,"MEAN_MOTION_DOT":0.00015003,"MEAN_MOTION_DDOT":0},{"OBJECT_NAME":"KUIPER-00234","OBJECT_ID":"2026-072J","EPOCH":"2026-07-11T22:31:14.931264","CLASSIFICATION_TYPE":"U","MEAN_MOTION":14.76588342,"ECCENTRICITY":0.00004576,"INCLINATION":51.9002,"RA_OF_ASC_NODE":81.1093,"ARG_OF_PERICENTER":270.5002,"MEAN_ANOMALY":89.5906,"EPHEMERIS_TYPE":0,"NORAD_CAT_ID":68581,"ELEMENT_SET_NO":999,"REV_AT_EPOCH":1485,"BSTAR":0.00012707939,"MEAN_MOTION_DOT":0.00000681,"MEAN_MOTION_DDOT":0},{"OBJECT_NAME":"KUIPER-00236","OBJECT_ID":"2026-072K","EPOCH":"2026-07-12T00:39:19.058688","CLASSIFICATION_TYPE":"U","MEAN_MOTION":15.38109803,"ECCENTRICITY":0.00028245,"INCLINATION":51.8769,"RA_OF_ASC_NODE":56.6916,"ARG_OF_PERICENTER":104.0306,"MEAN_ANOMALY":256.0995,"EPHEMERIS_TYPE":0,"NORAD_CAT_ID":68582,"ELEMENT_SET_NO":999,"REV_AT_EPOCH":1520,"BSTAR":0.00069486453,"MEAN_MOTION_DOT":0.00026178,"MEAN_MOTION_DDOT":0},{"OBJECT_NAME":"KUIPER-00244","OBJECT_ID":"2026-072L","EPOCH":"2026-07-12T01:23:40.275456","CLASSIFICATION_TYPE":"U","MEAN_MOTION":14.79930394,"ECCENTRICITY":0.00016387,"INCLINATION":51.9012,"RA_OF_ASC_NODE":70.6812,"ARG_OF_PERICENTER":114.1777,"MEAN_ANOMALY":245.9356,"EPHEMERIS_TYPE":0,"NORAD_CAT_ID":68583,"ELEMENT_SET_NO":999,"REV_AT_EPOCH":1501,"BSTAR":-0.00040043123,"MEAN_MOTION_DOT":-0.00003272,"MEAN_MOTION_DDOT":0},{"OBJECT_NAME":"KUIPER-00253","OBJECT_ID":"2026-072M","EPOCH":"2026-07-12T01:19:49.571040","CLASSIFICATION_TYPE":"U","MEAN_MOTION":14.79943546,"ECCENTRICITY":0.00006917,"INCLINATION":51.9044,"RA_OF_ASC_NODE":73.1974,"ARG_OF_PERICENTER":101.6565,"MEAN_ANOMALY":258.4475,"EPHEMERIS_TYPE":0,"NORAD_CAT_ID":68584,"ELEMENT_SET_NO":999,"REV_AT_EPOCH":1497,"BSTAR":0.00028557546,"MEAN_MOTION_DOT":0.00001957,"MEAN_MOTION_DDOT":0},{"OBJECT_NAME":"KUIPER-00254","OBJECT_ID":"2026-072N","EPOCH":"2026-07-12T02:04:33.631968","CLASSIFICATION_TYPE":"U","MEAN_MOTION":14.79944726,"ECCENTRICITY":0.00019151,"INCLINATION":51.9034,"RA_OF_ASC_NODE":75.5585,"ARG_OF_PERICENTER":106.1518,"MEAN_ANOMALY":253.9655,"EPHEMERIS_TYPE":0,"NORAD_CAT_ID":68585,"ELEMENT_SET_NO":999,"REV_AT_EPOCH":1494,"BSTAR":0.00029300775,"MEAN_MOTION_DOT":0.00002014,"MEAN_MOTION_DDOT":0},{"OBJECT_NAME":"KUIPER-00263","OBJECT_ID":"2026-072P","EPOCH":"2026-07-12T12:00:02.000160","CLASSIFICATION_TYPE":"U","MEAN_MOTION":14.8676635,"ECCENTRICITY":0.0002532,"INCLINATION":51.899,"RA_OF_ASC_NODE":58.9589,"ARG_OF_PERICENTER":89.6795,"MEAN_ANOMALY":156.8369,"EPHEMERIS_TYPE":0,"NORAD_CAT_ID":68586,"ELEMENT_SET_NO":999,"REV_AT_EPOCH":516,"BSTAR":-0.00088902,"MEAN_MOTION_DOT":-0.00008221,"MEAN_MOTION_DDOT":0},{"OBJECT_NAME":"KUIPER-00269","OBJECT_ID":"2026-072Q","EPOCH":"2026-07-12T12:00:02.000160","CLASSIFICATION_TYPE":"U","MEAN_MOTION":14.801243,"ECCENTRICITY":0.0000695,"INCLINATION":51.9003,"RA_OF_ASC_NODE":61.2253,"ARG_OF_PERICENTER":305.2363,"MEAN_ANOMALY":27.0384,"EPHEMERIS_TYPE":0,"NORAD_CAT_ID":68587,"ELEMENT_SET_NO":999,"REV_AT_EPOCH":570,"BSTAR":-0.00089781,"MEAN_MOTION_DOT":-0.0000709,"MEAN_MOTION_DDOT":0}]}
